{"type":"FeatureCollection","features":[{"type":"Feature","properties":{"name":"Partido de Maipú","osm_id":2616837,"slug":"maipu"},"geometry":{"type":"Polygon","coordinates":[[[-57.46558,-36.57033],[-57.44435,-36.58575],[-57.32937,-36.66847],[-57.30442,-36.68623],[-57.28825,-36.69786],[-57.24107,-36.73187],[-57.24259,-36.73303],[-57.17622,-36.78462],[-57.23295,-36.78846],[-57.23288,-36.78923],[-57.23225,-36.80693],[-57.23217,-36.80852],[-57.23192,-36.81095],[-57.23143,-36.8175],[-57.23123,-36.81985],[-57.23093,-36.82383],[-57.2297,-36.83918],[-57.22828,-36.85282],[-57.22757,-36.86219],[-57.22753,-36.86245],[-57.22353,-36.90904],[-57.22415,-36.90904],[-57.22832,-36.90893],[-57.23187,-36.90883],[-57.23368,-36.90876],[-57.23401,-36.90871],[-57.23428,-36.90861],[-57.23623,-36.90854],[-57.26296,-36.90778],[-57.26586,-36.90792],[-57.26603,-36.908],[-57.29299,-36.90904],[-57.32213,-36.91016],[-57.31857,-36.94678],[-57.31807,-36.95093],[-57.31748,-36.95331],[-57.31095,-36.9801],[-57.30544,-37.00349],[-57.31962,-37.00444],[-57.35024,-37.00666],[-57.35646,-37.00707],[-57.36862,-37.00788],[-57.37727,-37.00846],[-57.3797,-37.00862],[-57.39022,-37.0093],[-57.40227,-37.01026],[-57.40323,-37.01033],[-57.40764,-37.01069],[-57.41465,-37.01127],[-57.41928,-37.01162],[-57.42816,-37.01226],[-57.43688,-37.0129],[-57.48364,-37.01635],[-57.488,-37.01659],[-57.4895,-37.01668],[-57.49071,-37.01676],[-57.49269,-37.01689],[-57.49352,-37.01694],[-57.49156,-37.04756],[-57.49153,-37.04806],[-57.49113,-37.05293],[-57.49082,-37.05726],[-57.4901,-37.06566],[-57.48957,-37.07207],[-57.48929,-37.07623],[-57.48869,-37.08695],[-57.48776,-37.10208],[-57.48761,-37.10456],[-57.56742,-37.10502],[-57.5866,-37.12217],[-57.6232,-37.15487],[-57.62403,-37.15562],[-57.67547,-37.20248],[-57.72595,-37.16661],[-57.7358,-37.15962],[-57.75886,-37.14333],[-57.7693,-37.13586],[-57.77575,-37.13117],[-57.78492,-37.12449],[-57.79709,-37.11569],[-57.80313,-37.11132],[-57.8231,-37.09678],[-57.82328,-37.09667],[-57.82348,-37.09655],[-57.82362,-37.0965],[-57.82379,-37.09642],[-57.82394,-37.09635],[-57.82414,-37.09624],[-57.82556,-37.09519],[-57.82567,-37.0951],[-57.82575,-37.095],[-57.82586,-37.09482],[-57.82596,-37.0947],[-57.82605,-37.09461],[-57.82621,-37.09449],[-57.82732,-37.09369],[-57.8275,-37.09356],[-57.82753,-37.09354],[-57.83253,-37.08985],[-57.84146,-37.08326],[-57.84346,-37.08178],[-57.84629,-37.08004],[-57.84652,-37.07989],[-57.84678,-37.07972],[-57.85292,-37.07508],[-57.85408,-37.0742],[-57.85463,-37.07379],[-57.85518,-37.07329],[-57.85579,-37.07278],[-57.85641,-37.07229],[-57.86553,-37.06554],[-57.87045,-37.06188],[-57.888,-37.04901],[-57.9439,-37.00764],[-58.00976,-36.95872],[-57.99708,-36.94747],[-57.94385,-36.89917],[-57.96386,-36.88405],[-57.97204,-36.87804],[-57.96226,-36.86966],[-57.94612,-36.85618],[-57.94415,-36.85447],[-57.92077,-36.83465],[-57.91951,-36.83361],[-57.91943,-36.83358],[-57.91932,-36.83357],[-57.91923,-36.83359],[-57.91914,-36.83363],[-57.90568,-36.84387],[-57.90334,-36.8456],[-57.90092,-36.84737],[-57.89932,-36.84857],[-57.89192,-36.85421],[-57.89181,-36.85432],[-57.89175,-36.85443],[-57.89172,-36.85458],[-57.89146,-36.85445],[-57.88991,-36.85308],[-57.88805,-36.85143],[-57.88614,-36.84974],[-57.88427,-36.84809],[-57.87491,-36.83964],[-57.8416,-36.80997],[-57.81951,-36.79077],[-57.80251,-36.77633],[-57.79257,-36.76788],[-57.78812,-36.77145],[-57.77948,-36.76349],[-57.77206,-36.75701],[-57.74613,-36.73442],[-57.70709,-36.76333],[-57.661,-36.72323],[-57.65484,-36.72774],[-57.60305,-36.68199],[-57.60047,-36.67976],[-57.53557,-36.61981],[-57.49446,-36.58093],[-57.46558,-36.57033]]]}}]}