{"type":"FeatureCollection","features":[{"type":"Feature","properties":{"gid":2740,"ruta":"2","tipo":"autovía","superficie":"pavimentado","fuente":"DVP Buenos Aires"},"geometry":{"type":"MultiLineString","coordinates":[[[-57.8064213,-36.7754845],[-57.8075335,-36.7821144],[-57.8076323,-36.7826447],[-57.8079516,-36.7840139],[-57.8081765,-36.7847775],[-57.8084115,-36.7855123],[-57.8087955,-36.7864814],[-57.8089927,-36.7869161],[-57.8092352,-36.7873973],[-57.8097313,-36.788226],[-57.8102812,-36.7890387],[-57.8109674,-36.7898985],[-57.8120057,-36.7911164],[-57.821389,-36.800678],[-57.8343986,-36.813839],[-57.8344861,-36.8139275],[-57.852487,-36.8321868],[-57.8528604,-36.8325645],[-57.8583478,-36.8381158],[-57.858727,-36.8384991],[-57.8606529,-36.8404484],[-57.8649602,-36.8448258],[-57.8667655,-36.8465143],[-57.866793,-36.8465459],[-57.8668342,-36.8465877],[-57.8686616,-36.8485336],[-57.869306,-36.8492032],[-57.8696723,-36.8496602],[-57.8699105,-36.8500493],[-57.8700505,-36.8503382],[-57.87018,-36.8506945],[-57.8702685,-36.8509994],[-57.8703322,-36.8513145],[-57.8705254,-36.8525287],[-57.8705441,-36.8526674],[-57.8706147,-36.8531603],[-57.8707403,-36.8539812],[-57.8708014,-36.8543942],[-57.8709207,-36.8552577],[-57.8710562,-36.856372],[-57.8711238,-36.8567479],[-57.8713442,-36.8580639],[-57.8715517,-36.8593125],[-57.8716734,-36.8601116],[-57.8717597,-36.8606064],[-57.8718704,-36.8614561],[-57.8719495,-36.8619912],[-57.8720432,-36.8626644],[-57.8720504,-36.8627649],[-57.8721777,-36.8635317],[-57.8722935,-36.8642372],[-57.8726326,-36.8662689],[-57.872705,-36.8670602],[-57.8728688,-36.8680926],[-57.873016,-36.8689689],[-57.8732609,-36.8706598],[-57.8732774,-36.8707737],[-57.8734316,-36.8717308],[-57.8735325,-36.8723927],[-57.8740423,-36.8756666],[-57.8744704,-36.8785213],[-57.8746934,-36.8801242],[-57.8752272,-36.8834974],[-57.8752503,-36.8836463],[-57.877405,-36.8980032],[-57.877992,-36.9018398],[-57.8780388,-36.9021459],[-57.8798081,-36.9137084],[-57.8799654,-36.9145562],[-57.8800099,-36.9151449],[-57.8799653,-36.915804],[-57.879805,-36.916471],[-57.8795032,-36.9175203],[-57.879119,-36.918929],[-57.8766878,-36.9276029],[-57.8746871,-36.9345891],[-57.8745826,-36.9349542],[-57.8709243,-36.9479723],[-57.8693682,-36.9535328],[-57.8681997,-36.9576325],[-57.8661263,-36.9650165],[-57.8602165,-36.9863437],[-57.8549338,-37.005141],[-57.8524514,-37.0140017],[-57.8523732,-37.0142677],[-57.8510757,-37.0188917],[-57.8452472,-37.0395494],[-57.8390853,-37.061433],[-57.8384224,-37.0637837],[-57.8373117,-37.0677314],[-57.8361001,-37.0719482],[-57.8351841,-37.0752164],[-57.834947,-37.0760348],[-57.8347933,-37.0764684],[-57.8345617,-37.0769354],[-57.8343379,-37.0772645],[-57.8340908,-37.0775906],[-57.8336716,-37.078011],[-57.8333572,-37.078284],[-57.8320207,-37.079477],[-57.8319688,-37.07952317],[-57.83180215,-37.07967142],[-57.8317535,-37.0797147],[-57.8308403,-37.0805278],[-57.8306598,-37.0807279],[-57.830342,-37.0810802],[-57.83031584,-37.08111437],[-57.8300614,-37.0814468],[-57.8299374,-37.081687],[-57.8297961,-37.0819649],[-57.8297097,-37.0821764],[-57.8296076,-37.082472],[-57.8295606,-37.0826331],[-57.8294772,-37.0828835],[-57.8292254,-37.0837865],[-57.8289996,-37.0846],[-57.8287396,-37.0855066],[-57.8285708,-37.0861123],[-57.8283765,-37.0867845],[-57.8281848,-37.0874374],[-57.8277271,-37.088977],[-57.8273898,-37.0903268],[-57.827321,-37.0907326],[-57.8273079,-37.0909313],[-57.8272942,-37.091141],[-57.8273001,-37.0913996],[-57.8273735,-37.0919937],[-57.8277121,-37.093492]]]}},{"type":"Feature","properties":{"gid":2741,"ruta":"2","tipo":"autovía","superficie":"pavimentado","fuente":"DVP Buenos Aires"},"geometry":{"type":"MultiLineString","coordinates":[[[-57.8280342,-37.095999],[-57.8274619,-37.0935442],[-57.8271254,-37.092053],[-57.8270614,-37.0913871],[-57.827081,-37.090858],[-57.827127,-37.0904355],[-57.8274983,-37.0889367],[-57.8278528,-37.0877449],[-57.8282495,-37.0863711],[-57.8283372,-37.086071],[-57.8284292,-37.0857301],[-57.8285629,-37.0852661],[-57.8287469,-37.084609],[-57.8290042,-37.0837472],[-57.8294452,-37.082058],[-57.8296904,-37.0812466],[-57.8297859,-37.0809304],[-57.8298183,-37.0808232],[-57.8298828,-37.0805934],[-57.8301314,-37.0796796],[-57.8302236,-37.079358],[-57.8304719,-37.0785147],[-57.8307338,-37.0779285],[-57.831186,-37.0771925],[-57.8316634,-37.0765462],[-57.8326437,-37.0755597],[-57.8336602,-37.0746172],[-57.8340422,-37.0742297],[-57.8342492,-37.0739869],[-57.834525,-37.0736374],[-57.8347978,-37.0732393],[-57.8350228,-37.0728384],[-57.8352742,-37.0723375],[-57.8354532,-37.0718693],[-57.8367082,-37.0674814],[-57.8378414,-37.063372],[-57.838421,-37.0613097],[-57.8445988,-37.0394263],[-57.8466099,-37.0322033],[-57.8504039,-37.0187665],[-57.851703,-37.0141508],[-57.8517684,-37.0139232],[-57.8542771,-37.0050037],[-57.8595621,-36.9862138],[-57.8654786,-36.9648924],[-57.8675658,-36.9575217],[-57.8702769,-36.9478403],[-57.8739262,-36.9348439],[-57.8739863,-36.9346322],[-57.8784702,-36.9188365],[-57.8788765,-36.9173847],[-57.8791287,-36.9164409],[-57.8792303,-36.9158892],[-57.8792819,-36.9152918],[-57.8792843,-36.9147156],[-57.8791517,-36.9137843],[-57.8773961,-36.9021575],[-57.8773499,-36.901852],[-57.8767789,-36.89807],[-57.874633,-36.8837201],[-57.8746089,-36.8835593],[-57.8741019,-36.8804343],[-57.8739182,-36.8791719],[-57.8738541,-36.8786617],[-57.8738431,-36.8784114],[-57.8738261,-36.8778931],[-57.8738234,-36.8763506],[-57.8737921,-36.8757698],[-57.8736322,-36.8745998],[-57.8732845,-36.872425],[-57.873052,-36.8707941],[-57.872839,-36.8693634],[-57.8726829,-36.8684014],[-57.8723948,-36.8664159],[-57.8721757,-36.8651285],[-57.8719794,-36.8637516],[-57.8718127,-36.862774],[-57.8716375,-36.861474],[-57.8715675,-36.8609338],[-57.8714507,-36.8601443],[-57.8711096,-36.8580909],[-57.8708409,-36.8563989],[-57.8705856,-36.8544178],[-57.87031,-36.8526862],[-57.8702179,-36.8520589],[-57.8700925,-36.8514237],[-57.8699972,-36.8510573],[-57.8697995,-36.8504801],[-57.869632,-36.8501166],[-57.869399,-36.8497245],[-57.8692905,-36.8495682],[-57.8690863,-36.84932],[-57.8684807,-36.8486451],[-57.8665366,-36.8467795],[-57.8665064,-36.8467502],[-57.8664666,-36.8467075],[-57.8604593,-36.8405781],[-57.8584922,-36.8385877],[-57.858142,-36.8382337],[-57.8522893,-36.8323143],[-57.8342836,-36.814057],[-57.821182,-36.8007944],[-57.8120121,-36.7914994],[-57.8114049,-36.7908573],[-57.8106641,-36.7900068],[-57.810047,-36.7891369],[-57.809503,-36.7883034],[-57.8090028,-36.7874455],[-57.8087686,-36.7869895],[-57.8085694,-36.7865437],[-57.8081502,-36.7855779],[-57.8078861,-36.7848256],[-57.8076745,-36.784072],[-57.8073576,-36.7826896],[-57.8073166,-36.7824433],[-57.8072715,-36.7821478],[-57.8061645,-36.7755155]]]}},{"type":"Feature","properties":{"gid":3526,"ruta":"56","tipo":"ruta provincial","superficie":"pavimentado","fuente":"DVP Buenos Aires"},"geometry":{"type":"MultiLineString","coordinates":[[[-57.2321161,-36.8085305],[-57.23225253,-36.80687558],[-57.2328621,-36.7891921]],[[-57.2328621,-36.7891921],[-57.2329568,-36.7884609],[-57.23380687,-36.78141249],[-57.2347185,-36.77428358],[-57.2377096,-36.7506955],[-57.2394156,-36.7374825],[-57.2395006,-36.7367054],[-57.2395174,-36.736376],[-57.2395227,-36.7358192],[-57.239503,-36.7354287]]]}},{"type":"Feature","properties":{"gid":3617,"ruta":"62","tipo":"ruta provincial","superficie":"tierra","fuente":"DVP Buenos Aires"},"geometry":{"type":"MultiLineString","coordinates":[[[-57.3109219,-36.9102697],[-57.3149787,-36.9078578],[-57.3241537,-36.9026895],[-57.3260469,-36.9014372],[-57.3401608,-36.8911891],[-57.3437368,-36.888607],[-57.34521932,-36.88758317],[-57.346017,-36.8871619],[-57.3500473,-36.8851686],[-57.3549214,-36.8828138],[-57.3550202,-36.8828091],[-57.3550945,-36.8828101],[-57.3551702,-36.8828236],[-57.3552848,-36.8828598],[-57.3555498,-36.8831548],[-57.3557396,-36.8833808],[-57.3558066,-36.8834092],[-57.3559024,-36.8834211],[-57.3653863,-36.8788124],[-57.3726886,-36.8750548],[-57.3946176,-36.864411],[-57.3946477,-36.8643922],[-57.3946963,-36.8643685],[-57.3964095,-36.86355],[-57.3984157,-36.8626802],[-57.4028576,-36.86052],[-57.402911,-36.8604941],[-57.4199727,-36.852196],[-57.4263966,-36.8489712],[-57.426445,-36.8489481],[-57.4345548,-36.8450767],[-57.4348999,-36.8449217],[-57.4349836,-36.8448809],[-57.451143,-36.8370061],[-57.4524125,-36.8365349],[-57.4560859,-36.8346449],[-57.4563932,-36.8344868],[-57.4561626,-36.8341834],[-57.4560979,-36.8339956],[-57.4561754,-36.8338079],[-57.4563648,-36.8336398],[-57.4653973,-36.8292858],[-57.4655782,-36.8292696],[-57.4656768,-36.829319],[-57.4657792,-36.829395],[-57.4659448,-36.8295132],[-57.4661153,-36.8295585],[-57.4691656,-36.8276449],[-57.4725338,-36.8252483],[-57.4725759,-36.8251862],[-57.4725879,-36.8251456],[-57.4725733,-36.8251086],[-57.4724533,-36.8250143],[-57.4723414,-36.8248957],[-57.4723455,-36.824798],[-57.4723913,-36.8246775],[-57.4724832,-36.8245892],[-57.4847493,-36.8160999],[-57.4878746,-36.8134853],[-57.4913668,-36.8104867],[-57.4929847,-36.8087953],[-57.4945282,-36.8074998],[-57.4945632,-36.8074704],[-57.4974683,-36.805032],[-57.5046368,-36.7986597],[-57.5046625,-36.798638],[-57.5047159,-36.7985931],[-57.5047395,-36.7985732],[-57.5065433,-36.7971068],[-57.508291,-36.7955878],[-57.5089004,-36.7950584],[-57.509406,-36.7945459],[-57.5098687,-36.7939786],[-57.5101629,-36.7934889],[-57.5109263,-36.7921059],[-57.5117639,-36.7905885],[-57.5120321,-36.790141],[-57.5129216,-36.7885569],[-57.513472,-36.7877383],[-57.5137418,-36.7872271],[-57.5145162,-36.7854342],[-57.5149306,-36.7844955],[-57.514955,-36.7842576],[-57.5149711,-36.7841017],[-57.5150404,-36.7828773],[-57.5150757,-36.7826165],[-57.5151129,-36.7823411],[-57.5153602,-36.7818861],[-57.5167276,-36.7798646],[-57.5178488,-36.7783294],[-57.524984,-36.7701756],[-57.5295459,-36.7649673],[-57.5348958,-36.7588703],[-57.5379962,-36.7553412],[-57.538131,-36.755173],[-57.5394454,-36.753742],[-57.5404453,-36.7524027],[-57.5409986,-36.7516416],[-57.5411351,-36.7514951],[-57.5412252,-36.7513915],[-57.5433566,-36.7490368],[-57.5441429,-36.7481884],[-57.5442959,-36.7480233],[-57.5481454,-36.7446567],[-57.5520367,-36.7414539],[-57.5521435,-36.7413712],[-57.5539213,-36.7399028],[-57.5565559,-36.7375643],[-57.5603995,-36.7341789],[-57.5605278,-36.734062],[-57.56159025,-36.73306663],[-57.5623497,-36.7321659],[-57.57007154,-36.72288997],[-57.5731772,-36.7190247],[-57.5736618,-36.718492],[-57.5738568,-36.7182986],[-57.5742555,-36.7179455],[-57.5752856,-36.717063],[-57.57630565,-36.71643235],[-57.5772709,-36.715952],[-57.5789284,-36.7153903],[-57.5800625,-36.7151452],[-57.5808205,-36.7150471],[-57.5811522,-36.714901],[-57.5821369,-36.7140731],[-57.5824089,-36.7139235],[-57.5834077,-36.7137059],[-57.5847655,-36.713453],[-57.5860604,-36.7131782],[-57.5874187,-36.7129451],[-57.5887056,-36.7126536],[-57.5901909,-36.712366],[-57.5930315,-36.7118042],[-57.5931664,-36.7117834],[-57.5932919,-36.7117902],[-57.5934766,-36.7118003],[-57.5936205,-36.7118081],[-57.5942556,-36.7119036],[-57.5950639,-36.7120373],[-57.5955137,-36.7120505],[-57.5958352,-36.7120068],[-57.6022281,-36.7108799],[-57.6024538,-36.7108429],[-57.6074687,-36.7100204],[-57.6086859,-36.7097207],[-57.611977,-36.7091706],[-57.61424164,-36.70886614],[-57.61953153,-36.70805379],[-57.6238624,-36.7074491],[-57.6278905,-36.7067636],[-57.630132,-36.7066464],[-57.6301617,-36.7066449],[-57.6303237,-36.7066364],[-57.6304692,-36.7066288],[-57.6322261,-36.7065369]]]}},{"type":"Feature","properties":{"gid":3751,"ruta":"74","tipo":"ruta provincial","superficie":"pavimentado","fuente":"DVP Buenos Aires"},"geometry":{"type":"MultiLineString","coordinates":[[[-57.83180215,-37.07967142],[-57.83174303,-37.07988004],[-57.8317698,-37.08004065],[-57.8318271,-37.0801657],[-57.8319401,-37.0802309],[-57.8322565,-37.0803738]]]}},{"type":"Feature","properties":{"gid":3752,"ruta":"74","tipo":"ruta provincial","superficie":"pavimentado","fuente":"DVP Buenos Aires"},"geometry":{"type":"MultiLineString","coordinates":[[[-57.8294476,-37.0800146],[-57.829698,-37.0799848],[-57.8298806,-37.079923],[-57.8300287,-37.0797839],[-57.8301314,-37.0796796]]]}},{"type":"Feature","properties":{"gid":3753,"ruta":"74","tipo":"ruta provincial","superficie":"pavimentado","fuente":"DVP Buenos Aires"},"geometry":{"type":"MultiLineString","coordinates":[[[-57.8298828,-37.0805934],[-57.829864,-37.0803888],[-57.8297603,-37.0801956],[-57.8296427,-37.0801106],[-57.8294476,-37.0800146]]]}},{"type":"Feature","properties":{"gid":3749,"ruta":"74","tipo":"ruta provincial","superficie":"pavimentado","fuente":"DVP Buenos Aires"},"geometry":{"type":"MultiLineString","coordinates":[[[-57.8435216,-37.0817503],[-57.8403462,-37.0813593],[-57.8371387,-37.0809754],[-57.8349872,-37.0807103],[-57.8342441,-37.0806187],[-57.8323975,-37.0803912],[-57.8322565,-37.0803738]]]}},{"type":"Feature","properties":{"gid":3750,"ruta":"74","tipo":"ruta provincial","superficie":"pavimentado","fuente":"DVP Buenos Aires"},"geometry":{"type":"MultiLineString","coordinates":[[[-57.8322565,-37.0803738],[-57.8320067,-37.0803493],[-57.8318411,-37.080333],[-57.8315822,-37.0803324],[-57.8313457,-37.0803637],[-57.8308403,-37.0805278]]]}},{"type":"Feature","properties":{"gid":3754,"ruta":"74","tipo":"ruta provincial","superficie":"pavimentado","fuente":"DVP Buenos Aires"},"geometry":{"type":"MultiLineString","coordinates":[[[-57.8294476,-37.0800146],[-57.8284932,-37.0798769],[-57.8273007,-37.079754],[-57.8271331,-37.0797329],[-57.823839,-37.0793175],[-57.8168686,-37.0784386],[-57.8099126,-37.0775615],[-57.8087588,-37.0774528],[-57.8079458,-37.0774327],[-57.8068325,-37.0775495],[-57.8028511,-37.0779827],[-57.8022522,-37.0780408],[-57.7839703,-37.0798897],[-57.7656025,-37.0817385],[-57.7433508,-37.0839321],[-57.7294382,-37.0852812],[-57.7242236,-37.085862],[-57.723815,-37.0859075],[-57.7198602,-37.0863032],[-57.7081624,-37.0874413],[-57.6978606,-37.0884435],[-57.6763533,-37.0906747],[-57.6719341,-37.0911106],[-57.6571125,-37.0925724],[-57.656007,-37.0926467],[-57.6551814,-37.0926269],[-57.6543223,-37.0925566],[-57.6420372,-37.0907545],[-57.619868,-37.0875025],[-57.610409,-37.0861024],[-57.6071315,-37.0856433],[-57.6063385,-37.0855689],[-57.6055884,-37.0855973],[-57.6046202,-37.0857024],[-57.6008934,-37.0861365],[-57.5928481,-37.0871574],[-57.5909119,-37.0874031],[-57.5740765,-37.0895393],[-57.5488174,-37.0927331],[-57.5408663,-37.0937384],[-57.5287017,-37.0952536],[-57.5242763,-37.0958213],[-57.5227061,-37.0961205],[-57.5218616,-37.0964192],[-57.5213176,-37.0966836],[-57.5180627,-37.0985095],[-57.5171299,-37.0989042],[-57.5151764,-37.0995905],[-57.5121272,-37.1006705],[-57.5107815,-37.1010152],[-57.5022223,-37.1027276],[-57.5006203,-37.1029133],[-57.4992347,-37.1029731],[-57.4978027,-37.1028818],[-57.4965812,-37.1027868],[-57.4922152,-37.1024473],[-57.4878438,-37.1020947],[-57.4821284,-37.1016987]]]}},{"type":"Feature","properties":{"gid":4149,"ruta":"74","tipo":"ruta provincial","superficie":"pavimentado","fuente":"DVP Buenos Aires"},"geometry":{"type":"MultiLineString","coordinates":[[[-57.83031584,-37.08111437],[-57.83019549,-37.08116762],[-57.83008485,-37.08116762],[-57.82997777,-37.08114621],[-57.82988854,-37.08110338],[-57.82984214,-37.08104627],[-57.8297859,-37.0809304]]]}},{"type":"Feature","properties":{"gid":4148,"ruta":"74","tipo":"ruta provincial","superficie":"pavimentado","fuente":"DVP Buenos Aires"},"geometry":{"type":"MultiLineString","coordinates":[[[-57.8319688,-37.07952317],[-57.8320018,-37.07939225],[-57.83199585,-37.07924056],[-57.83195421,-37.07911563],[-57.83185903,-37.07903235],[-57.83165678,-37.07897882],[-57.8313415,-37.07897882],[-57.83102325,-37.07899369],[-57.83069012,-37.0790502],[-57.83047597,-37.07911861],[-57.83035105,-37.07920189],[-57.8302236,-37.079358]]]}}]}